{"type": "FeatureCollection", "features": [ {"type": "Feature", "properties": {"norad_id": 39019, "name": "PLEIADES 1B", "group": "resource", "lat": -8.015941334695766, "lon": -109.22605073318775, "alt_km": 701.9447448953251, "timestamp": "2025-12-25T11:37:44.078601+00:00", "meta": {"OBJECT_NAME": "PLEIADES 1B", "OBJECT_ID": "2012-068A", "EPOCH": "2025-12-25T04:11:02.946624", "MEAN_MOTION": 14.58563442, "ECCENTRICITY": 0.0001148, "INCLINATION": 98.1778, "RA_OF_ASC_NODE": 71.6291, "ARG_OF_PERICENTER": 87.4167, "MEAN_ANOMALY": 272.7164, "EPHEMERIS_TYPE": 0, "CLASSIFICATION_TYPE": "U", "NORAD_CAT_ID": 39019, "ELEMENT_SET_NO": 999, "REV_AT_EPOCH": 69548, "BSTAR": 6.698e-05, "MEAN_MOTION_DOT": 2.66e-06, "MEAN_MOTION_DDOT": 0}, "tle": {"line1": "1 39019U 12068A   25359.17433966  .00000266  00000+0  66980-4 0  9998", "line2": "2 39019  98.1778  71.6291 0001148  87.4167 272.7164 14.58563442695480"}}, "geometry": {"type": "Point", "coordinates": [-109.22605073318775, -8.015941334695766]}}, {"type": "Feature", "properties": {"norad_id": 39030, "name": "GOKTURK 2", "group": "resource", "lat": 82.30432925990029, "lon": 111.88234348626744, "alt_km": 635.7369052087579, "timestamp": "2025-12-25T11:37:44.078611+00:00", "meta": {"OBJECT_NAME": "GOKTURK 2", "OBJECT_ID": "2012-073A", "EPOCH": "2025-12-25T04:42:44.309088", "MEAN_MOTION": 14.75307813, "ECCENTRICITY": 0.0001438, "INCLINATION": 97.6884, "RA_OF_ASC_NODE": 200.237, "ARG_OF_PERICENTER": 107.32, "MEAN_ANOMALY": 252.8167, "EPHEMERIS_TYPE": 0, "CLASSIFICATION_TYPE": "U", "NORAD_CAT_ID": 39030, "ELEMENT_SET_NO": 999, "REV_AT_EPOCH": 69885, "BSTAR": 0.00012299, "MEAN_MOTION_DOT": 7.86e-06, "MEAN_MOTION_DDOT": 0}, "tle": {"line1": "1 39030U 12073A   25359.19634617  .00000786  00000+0  12299-3 0  9995", "line2": "2 39030  97.6884 200.2370 0001438 107.3200 252.8167 14.75307813698858"}}, "geometry": {"type": "Point", "coordinates": [111.88234348626744, 82.30432925990029]}}, {"type": "Feature", "properties": {"norad_id": 39084, "name": "LANDSAT 8", "group": "resource", "lat": -66.81630843868393, "lon": 87.05920142197536, "alt_km": 710.4442638292039, "timestamp": "2025-12-25T11:37:44.078621+00:00", "meta": {"OBJECT_NAME": "LANDSAT 8", "OBJECT_ID": "2013-008A", "EPOCH": "2025-12-25T03:42:04.904352", "MEAN_MOTION": 14.57114699, "ECCENTRICITY": 0.0001052, "INCLINATION": 98.2056, "RA_OF_ASC_NODE": 67.0436, "ARG_OF_PERICENTER": 93.2647, "MEAN_ANOMALY": 266.8672, "EPHEMERIS_TYPE": 0, "CLASSIFICATION_TYPE": "U", "NORAD_CAT_ID": 39084, "ELEMENT_SET_NO": 999, "REV_AT_EPOCH": 67255, "BSTAR": 0.00010246, "MEAN_MOTION_DOT": 4.16e-06, "MEAN_MOTION_DDOT": 0}, "tle": {"line1": "1 39084U 13008A   25359.15422343  .00000416  00000+0  10246-3 0  9990", "line2": "2 39084  98.2056  67.0436 0001052  93.2647 266.8672 14.57114699672550"}}, "geometry": {"type": "Point", "coordinates": [87.05920142197536, -66.81630843868393]}}, {"type": "Feature", "properties": {"norad_id": 39086, "name": "SARAL", "group": "resource", "lat": -60.87689983674496, "lon": -12.418254740377614, "alt_km": 791.6079964415603, "timestamp": "2025-12-25T11:37:44.078630+00:00", "meta": {"OBJECT_NAME": "SARAL", "OBJECT_ID": "2013-009A", "EPOCH": "2025-12-25T03:47:55.803264", "MEAN_MOTION": 14.3276122, "ECCENTRICITY": 0.0002959, "INCLINATION": 98.5503, "RA_OF_ASC_NODE": 182.9266, "ARG_OF_PERICENTER": 85.2941, "MEAN_ANOMALY": 274.8581, "EPHEMERIS_TYPE": 0, "CLASSIFICATION_TYPE": "U", "NORAD_CAT_ID": 39086, "ELEMENT_SET_NO": 999, "REV_AT_EPOCH": 67068, "BSTAR": 6.1038e-05, "MEAN_MOTION_DOT": 1.23e-06, "MEAN_MOTION_DDOT": 0}, "tle": {"line1": "1 39086U 13009A   25359.15828476  .00000123  00000+0  61038-4 0  9991", "line2": "2 39086  98.5503 182.9266 0002959  85.2941 274.8581 14.32761220670686"}}, "geometry": {"type": "Point", "coordinates": [-12.418254740377614, -60.87689983674496]}}, {"type": "Feature", "properties": {"norad_id": 39150, "name": "GAOFEN-1", "group": "resource", "lat": -43.63603823234083, "lon": -117.72116340743918, "alt_km": 653.4819073835579, "timestamp": "2025-12-25T11:37:44.078640+00:00", "meta": {"OBJECT_NAME": "GAOFEN-1", "OBJECT_ID": "2013-018A", "EPOCH": "2025-12-25T04:06:47.059200", "MEAN_MOTION": 14.76501705, "ECCENTRICITY": 0.001853, "INCLINATION": 97.931, "RA_OF_ASC_NODE": 69.6098, "ARG_OF_PERICENTER": 105.4818, "MEAN_ANOMALY": 254.844, "EPHEMERIS_TYPE": 0, "CLASSIFICATION_TYPE": "U", "NORAD_CAT_ID": 39150, "ELEMENT_SET_NO": 999, "REV_AT_EPOCH": 68256, "BSTAR": 0.00016233, "MEAN_MOTION_DOT": 1.083e-05, "MEAN_MOTION_DDOT": 0}, "tle": {"line1": "1 39150U 13018A   25359.17137800  .00001083  00000+0  16233-3 0  9991", "line2": "2 39150  97.9310  69.6098 0018530 105.4818 254.8440 14.76501705682561"}}, "geometry": {"type": "Point", "coordinates": [-117.72116340743918, -43.63603823234083]}}, {"type": "Feature", "properties": {"norad_id": 39160, "name": "VNREDSAT 1", "group": "resource", "lat": 63.22483029626904, "lon": -109.64155167588756, "alt_km": 670.4032185504684, "timestamp": "2025-12-25T11:37:44.078650+00:00", "meta": {"OBJECT_NAME": "VNREDSAT 1", "OBJECT_ID": "2013-021B", "EPOCH": "2025-12-25T04:32:45.699648", "MEAN_MOTION": 14.64940198, "ECCENTRICITY": 0.0001171, "INCLINATION": 97.9352, "RA_OF_ASC_NODE": 54.027, "ARG_OF_PERICENTER": 84.4255, "MEAN_ANOMALY": 275.7082, "EPHEMERIS_TYPE": 0, "CLASSIFICATION_TYPE": "U", "NORAD_CAT_ID": 39160, "ELEMENT_SET_NO": 999, "REV_AT_EPOCH": 67481, "BSTAR": 0.00010905, "MEAN_MOTION_DOT": 5.38e-06, "MEAN_MOTION_DDOT": 0}, "tle": {"line1": "1 39160U 13021B   25359.18941782  .00000538  00000+0  10905-3 0  9993", "line2": "2 39160  97.9352  54.0270 0001171  84.4255 275.7082 14.64940198674815"}}, "geometry": {"type": "Point", "coordinates": [-109.64155167588756, 63.22483029626904]}}, {"type": "Feature", "properties": {"norad_id": 39227, "name": "ARIRANG-5 (KOMPSAT-5)", "group": "resource", "lat": -27.16208761608302, "lon": -0.3296184936440183, "alt_km": 561.0113523568125, "timestamp": "2025-12-25T11:37:44.078660+00:00", "meta": {"OBJECT_NAME": "ARIRANG-5 (KOMPSAT-5)", "OBJECT_ID": "2013-042A", "EPOCH": "2025-12-25T04:19:31.473696", "MEAN_MOTION": 15.0448169, "ECCENTRICITY": 0.0003042, "INCLINATION": 97.6164, "RA_OF_ASC_NODE": 183.3074, "ARG_OF_PERICENTER": 34.1304, "MEAN_ANOMALY": 326.0117, "EPHEMERIS_TYPE": 0, "CLASSIFICATION_TYPE": "U", "NORAD_CAT_ID": 39227, "ELEMENT_SET_NO": 999, "REV_AT_EPOCH": 67769, "BSTAR": 9.2553e-05, "MEAN_MOTION_DOT": 1.234e-05, "MEAN_MOTION_DDOT": 0}, "tle": {"line1": "1 39227U 13042A   25359.18022539  .00001234  00000+0  92553-4 0  9994", "line2": "2 39227  97.6164 183.3074 0003042  34.1304 326.0117 15.04481690677691"}}, "geometry": {"type": "Point", "coordinates": [-0.3296184936440183, -27.16208761608302]}}, {"type": "Feature", "properties": {"norad_id": 39418, "name": "SKYSAT-A", "group": "resource", "lat": -6.889393768938159, "lon": -131.59575964367, "alt_km": 520.0453793079296, "timestamp": "2025-12-25T11:37:44.078670+00:00", "meta": {"OBJECT_NAME": "SKYSAT-A", "OBJECT_ID": "2013-066C", "EPOCH": "2025-12-25T02:51:41.607648", "MEAN_MOTION": 15.1169067, "ECCENTRICITY": 0.0021644, "INCLINATION": 97.4085, "RA_OF_ASC_NODE": 48.9509, "ARG_OF_PERICENTER": 192.0713, "MEAN_ANOMALY": 168.0001, "EPHEMERIS_TYPE": 0, "CLASSIFICATION_TYPE": "U", "NORAD_CAT_ID": 39418, "ELEMENT_SET_NO": 999, "REV_AT_EPOCH": 66217, "BSTAR": 0.00020529, "MEAN_MOTION_DOT": 3.45e-05, "MEAN_MOTION_DDOT": 0}, "tle": {"line1": "1 39418U 13066C   25359.11923157  .00003450  00000+0  20529-3 0  9996", "line2": "2 39418  97.4085  48.9509 0021644 192.0713 168.0001 15.11690670662179"}}, "geometry": {"type": "Point", "coordinates": [-131.59575964367, -6.889393768938159]}}, {"type": "Feature", "properties": {"norad_id": 39419, "name": "DUBAISAT-2", "group": "resource", "lat": -0.881838244325714, "lon": 169.38473557532015, "alt_km": 544.124049940433, "timestamp": "2025-12-25T11:37:44.078680+00:00", "meta": {"OBJECT_NAME": "DUBAISAT-2", "OBJECT_ID": "2013-066D", "EPOCH": "2025-12-25T04:27:39.613824", "MEAN_MOTION": 15.08475458, "ECCENTRICITY": 0.0009854, "INCLINATION": 97.4465, "RA_OF_ASC_NODE": 349.2105, "ARG_OF_PERICENTER": 272.6069, "MEAN_ANOMALY": 87.4032, "EPHEMERIS_TYPE": 0, "CLASSIFICATION_TYPE": "U", "NORAD_CAT_ID": 39419, "ELEMENT_SET_NO": 999, "REV_AT_EPOCH": 66014, "BSTAR": 0.00042756, "MEAN_MOTION_DOT": 6.611e-05, "MEAN_MOTION_DDOT": 0}, "tle": {"line1": "1 39419U 13066D   25359.18587516  .00006611  00000+0  42756-3 0  9997", "line2": "2 39419  97.4465 349.2105 0009854 272.6069  87.4032 15.08475458660143"}}, "geometry": {"type": "Point", "coordinates": [169.38473557532015, -0.881838244325714]}}, {"type": "Feature", "properties": {"norad_id": 39574, "name": "GPM-CORE", "group": "resource", "lat": -29.86229221316018, "lon": 5.561833514479514, "alt_km": 432.43510617862194, "timestamp": "2025-12-25T11:37:44.078689+00:00", "meta": {"OBJECT_NAME": "GPM-CORE", "OBJECT_ID": "2014-009C", "EPOCH": "2025-12-25T01:23:06.530208", "MEAN_MOTION": 15.44653778, "ECCENTRICITY": 0.0009103, "INCLINATION": 64.9727, "RA_OF_ASC_NODE": 171.4303, "ARG_OF_PERICENTER": 250.7111, "MEAN_ANOMALY": 109.3045, "EPHEMERIS_TYPE": 0, "CLASSIFICATION_TYPE": "U", "NORAD_CAT_ID": 39574, "ELEMENT_SET_NO": 999, "REV_AT_EPOCH": 67091, "BSTAR": 0.00019709, "MEAN_MOTION_DOT": 9.003e-05, "MEAN_MOTION_DDOT": 0}, "tle": {"line1": "1 39574U 14009C   25359.05771447  .00009003  00000+0  19709-3 0  9991", "line2": "2 39574  64.9727 171.4303 0009103 250.7111 109.3045 15.44653778670919"}}, "geometry": {"type": "Point", "coordinates": [5.561833514479514, -29.86229221316018]}}]}